{"type":"FeatureCollection","features":[{"type":"Feature","properties":{"pressure_hpa":996,"timestamp":"2026-01-15T00:00:00Z","is_simulated":true,"operational_use":false},"geometry":{"type":"LineString","coordinates":[[-76.375,7.78406],[-77.125,7.32774],[-77.68306,6.625],[-78.05823,5.625],[-78.10741,4.5],[-77.875,3.61354],[-77.5,2.98556],[-77.125,2.62454],[-76.625,2.36658],[-76.125,2.29642],[-75.625,2.3958],[-75.0,2.79827],[-74.56655,3.375],[-74.23214,4.375],[-74.22424,5.75],[-74.54477,6.875],[-74.875,7.39779],[-75.375,7.77247],[-75.75,7.86668],[-76.25,7.82181],[-76.375,7.78406]]}},{"type":"Feature","properties":{"pressure_hpa":1000,"timestamp":"2026-01-15T00:00:00Z","is_simulated":true,"operational_use":false},"geometry":{"type":"LineString","coordinates":[[-75.75,9.2525],[-76.75,8.85472],[-77.64232,8.125],[-78.39802,7.0],[-78.79476,5.625],[-78.7368,4.125],[-78.33054,3.0],[-77.75,2.21955],[-77.0,1.70298],[-76.375,1.53365],[-75.75,1.56061],[-75.125,1.78617],[-74.625,2.13993],[-74.11582,2.75],[-73.69416,3.75],[-73.58714,6.0],[-74.00993,8.0],[-74.38177,8.75],[-74.625,9.01673],[-74.875,9.17711],[-75.25,9.2785],[-75.75,9.2525]]}},{"type":"Feature","properties":{"pressure_hpa":1000,"timestamp":"2026-01-15T00:00:00Z","is_simulated":true,"operational_use":false},"geometry":{"type":"LineString","coordinates":[[-71.73107,14.0],[-70.60931,14.0]]}},{"type":"Feature","properties":{"pressure_hpa":1004,"timestamp":"2026-01-15T00:00:00Z","is_simulated":true,"operational_use":false},"geometry":{"type":"LineString","coordinates":[[-74.86126,14.0],[-75.2751,12.25],[-75.90842,11.25],[-78.41026,8.75],[-79.19222,7.375],[-79.57602,5.75],[-79.46291,4.125],[-78.9574,2.75],[-78.22644,1.75],[-77.375,1.1172],[-76.625,0.85594],[-75.75,0.83366],[-75.0,1.04847],[-74.25,1.51479],[-73.59564,2.25],[-73.11634,3.375],[-73.113,9.625],[-72.85835,10.5],[-72.35546,11.25],[-71.25,12.14507],[-69.75,12.7687],[-68.25,12.87389],[-66.0,12.17789]]}},{"type":"Feature","properties":{"pressure_hpa":1008,"timestamp":"2026-01-15T00:00:00Z","is_simulated":true,"operational_use":false},"geometry":{"type":"LineString","coordinates":[[-76.83462,14.0],[-77.64621,12.125],[-80.26619,8.375],[-80.72198,7.125],[-80.77651,5.625],[-80.20729,3.5],[-79.37355,2.0],[-78.25,0.84416],[-77.25,0.29995],[-76.25,0.09514],[-75.25,0.18841],[-74.125,0.65224],[-73.35766,1.25],[-72.73381,2.125],[-72.42093,3.25],[-72.44647,8.5],[-72.10524,9.75],[-71.4728,10.75],[-70.75,11.39686],[-69.75,11.88432],[-68.75,12.02659],[-67.75,11.8507],[-66.75,11.33619],[-66.0,10.69577]]}},{"type":"Feature","properties":{"pressure_hpa":1008,"timestamp":"2026-01-15T00:00:00Z","is_simulated":true,"operational_use":false},"geometry":{"type":"LineString","coordinates":[[-66.0,-3.9553],[-66.63632,-4.625],[-66.88167,-5.0]]}},{"type":"Feature","properties":{"pressure_hpa":1012,"timestamp":"2026-01-15T00:00:00Z","is_simulated":true,"operational_use":false},"geometry":{"type":"LineString","coordinates":[[-79.57997,14.0],[-80.125,13.59741],[-80.625,13.44142],[-81.25,13.50671],[-82.0,13.87034]]}},{"type":"Feature","properties":{"pressure_hpa":1012,"timestamp":"2026-01-15T00:00:00Z","is_simulated":true,"operational_use":false},"geometry":{"type":"LineString","coordinates":[[-66.0,3.17033],[-67.375,1.60857],[-68.64236,0.5],[-69.00763,0.0],[-69.20556,-0.625],[-69.34478,-5.0]]}},{"type":"Feature","properties":{"pressure_hpa":1012,"timestamp":"2026-01-15T00:00:00Z","is_simulated":true,"operational_use":false},"geometry":{"type":"LineString","coordinates":[[-66.0,9.34588],[-66.64678,10.25],[-67.38329,10.875],[-68.125,11.21442],[-68.875,11.31747],[-69.625,11.19348],[-70.5,10.72899],[-71.28186,9.875],[-71.78504,8.75],[-71.92834,5.625],[-71.54968,2.125],[-71.65901,1.5],[-71.93186,1.0],[-72.875,0.23838],[-74.75,-0.53424],[-76.25,-0.67879],[-77.5,-0.42518],[-79.0,0.3854],[-81.0,2.06152],[-81.5,2.26257],[-81.76278,2.25],[-82.0,2.15701]]}},{"type":"Feature","properties":{"pressure_hpa":1016,"timestamp":"2026-01-15T00:00:00Z","is_simulated":true,"operational_use":false},"geometry":{"type":"LineString","coordinates":[[-71.21278,-5.0],[-71.33891,-3.25],[-71.66386,-2.375],[-72.125,-1.83056],[-72.5,-1.62376],[-73.5,-1.49368],[-76.625,-1.56045],[-80.25,-0.46747],[-80.75,-0.46497],[-81.14223,-0.625],[-81.51984,-1.0],[-82.0,-2.10147]]}},{"type":"Feature","properties":{"pressure_hpa":1016,"timestamp":"2026-01-15T00:00:00Z","is_simulated":true,"operational_use":false},"geometry":{"type":"LineString","coordinates":[[-69.25,10.63247],[-70.0,10.33212],[-70.65488,9.75],[-71.17185,8.875],[-71.5052,7.375],[-71.23165,4.75],[-70.75,3.48254],[-70.25,2.8238],[-69.875,2.57569],[-69.375,2.4483],[-68.75,2.50819],[-67.875,2.90245],[-66.9668,3.75],[-66.33495,4.875],[-66.01387,6.375],[-66.13701,7.875],[-66.54224,9.0],[-67.15596,9.875],[-67.875,10.42345],[-68.5,10.63846],[-69.125,10.65296],[-69.25,10.63247]]}},{"type":"Feature","properties":{"pressure_hpa":1020,"timestamp":"2026-01-15T00:00:00Z","is_simulated":true,"operational_use":false},"geometry":{"type":"LineString","coordinates":[[-73.33534,-5.0],[-73.5113,-4.25],[-73.875,-3.69308],[-74.375,-3.33853],[-78.25,-2.74019],[-79.0,-2.82495],[-79.37596,-3.0],[-79.63347,-3.25],[-79.875,-3.77003],[-79.93186,-4.75],[-79.89807,-5.0]]}},{"type":"Feature","properties":{"pressure_hpa":1020,"timestamp":"2026-01-15T00:00:00Z","is_simulated":true,"operational_use":false},"geometry":{"type":"LineString","coordinates":[[-69.125,10.01154],[-69.625,9.84768],[-70.125,9.4876],[-70.6528,8.75],[-71.0082,7.5],[-70.93587,5.875],[-70.56538,4.75],[-70.25,4.24416],[-69.8672,3.875],[-69.5,3.68134],[-69.0,3.60016],[-68.5,3.68854],[-67.875,4.02953],[-67.22338,4.75],[-66.7437,5.875],[-66.62653,7.125],[-66.88825,8.375],[-67.29078,9.125],[-67.76456,9.625],[-68.25,9.90985],[-68.75,10.02745],[-69.125,10.01154]]}},{"type":"Feature","properties":{"pressure_hpa":1024,"timestamp":"2026-01-15T00:00:00Z","is_simulated":true,"operational_use":false},"geometry":{"type":"LineString","coordinates":[[-69.25,9.2856],[-69.625,9.09552],[-70.0,8.72878],[-70.375,7.99222],[-70.52556,7.0],[-70.35385,5.875],[-69.9724,5.125],[-69.5,4.70577],[-69.125,4.57632],[-68.75,4.57966],[-68.25,4.77749],[-67.85047,5.125],[-67.45926,5.75],[-67.22527,6.625],[-67.26342,7.625],[-67.5209,8.375],[-67.875,8.87907],[-68.25,9.17419],[-68.625,9.31817],[-69.0,9.33854],[-69.25,9.2856]]}}]}
