{"type":"FeatureCollection","features":[{"type":"Feature","properties":{"pressure_hpa":996,"timestamp":"2026-01-15T03:00:00Z","is_simulated":true,"operational_use":false},"geometry":{"type":"LineString","coordinates":[[-75.5,9.00541],[-76.125,8.6132],[-76.91339,7.75],[-77.65398,6.25],[-77.91349,4.625],[-77.71057,3.125],[-77.20597,2.0],[-76.5,1.19621],[-75.875,0.81148],[-75.125,0.62103],[-74.375,0.68602],[-73.625,1.02145],[-72.97534,1.625],[-72.55608,2.375],[-72.35484,3.375],[-72.77944,5.875],[-73.80021,8.25],[-74.375,8.91798],[-74.625,9.056],[-75.0,9.1215],[-75.375,9.05328],[-75.5,9.00541]]}},{"type":"Feature","properties":{"pressure_hpa":1000,"timestamp":"2026-01-15T03:00:00Z","is_simulated":true,"operational_use":false},"geometry":{"type":"LineString","coordinates":[[-74.625,11.51501],[-75.5,10.86489],[-77.25457,8.75],[-78.18813,6.75],[-78.48435,4.75],[-78.23089,3.0],[-77.60383,1.625],[-76.99037,0.875],[-76.25,0.32083],[-75.375,-0.00611],[-74.5,-0.04918],[-73.625,0.17638],[-72.86252,0.625],[-72.25,1.25263],[-71.8504,2.0],[-71.67821,3.0],[-73.87511,11.0],[-74.125,11.43953],[-74.25,11.52969],[-74.375,11.56229],[-74.625,11.51501]]}},{"type":"Feature","properties":{"pressure_hpa":1004,"timestamp":"2026-01-15T03:00:00Z","is_simulated":true,"operational_use":false},"geometry":{"type":"LineString","coordinates":[[-75.96026,14.0],[-78.88146,7.125],[-79.13388,4.875],[-78.79426,2.875],[-78.10012,1.375],[-77.125,0.22768],[-76.125,-0.42403],[-74.875,-0.75686],[-73.625,-0.66409],[-72.25,-0.10015],[-71.34948,0.625],[-70.92092,1.25],[-70.73495,1.875],[-70.78935,2.875],[-72.60864,8.875],[-72.65905,10.625],[-72.30454,12.0],[-71.48112,13.375],[-70.91242,14.0]]}},{"type":"Feature","properties":{"pressure_hpa":1008,"timestamp":"2026-01-15T03:00:00Z","is_simulated":true,"operational_use":false},"geometry":{"type":"LineString","coordinates":[[-77.6946,14.0],[-79.91041,7.5],[-80.01496,5.0],[-79.43469,2.625],[-78.49989,0.875],[-77.49988,-0.25],[-76.125,-1.14121],[-74.625,-1.54681],[-70.0,-1.32929],[-68.625,-1.46782],[-68.125,-1.33656],[-67.59192,-0.875],[-66.96886,0.375],[-66.77173,1.375],[-66.82072,1.875],[-67.0,2.18808],[-67.375,2.39661],[-68.875,2.77522],[-69.5,3.16037],[-70.53447,4.375],[-71.79568,7.25],[-72.11914,9.375],[-71.87016,11.0],[-71.23078,12.25],[-70.5,13.02381],[-69.625,13.55536],[-68.625,13.80548],[-67.625,13.72571],[-66.75,13.37119],[-66.0,12.81624]]}},{"type":"Feature","properties":{"pressure_hpa":1012,"timestamp":"2026-01-15T03:00:00Z","is_simulated":true,"operational_use":false},"geometry":{"type":"LineString","coordinates":[[-79.55718,14.0],[-80.75,11.87359],[-81.5,11.08],[-82.0,10.85467]]}},{"type":"Feature","properties":{"pressure_hpa":1012,"timestamp":"2026-01-15T03:00:00Z","is_simulated":true,"operational_use":false},"geometry":{"type":"LineString","coordinates":[[-70.93478,-5.0],[-71.29954,-4.125],[-71.875,-3.4595],[-72.75,-2.96918],[-76.125,-1.95243],[-78.0,-0.72683],[-81.13161,3.25],[-81.5,3.54404],[-81.75,3.62234],[-82.0,3.59341]]}},{"type":"Feature","properties":{"pressure_hpa":1012,"timestamp":"2026-01-15T03:00:00Z","is_simulated":true,"operational_use":false},"geometry":{"type":"LineString","coordinates":[[-66.0,10.15752],[-66.55374,11.375],[-67.375,12.2884],[-68.0,12.63925],[-68.625,12.78049],[-69.25,12.73647],[-70.125,12.35228],[-70.77071,11.75],[-71.29304,10.875],[-71.63188,9.375],[-71.42446,7.5],[-70.70306,5.75],[-70.125,4.9715],[-69.5,4.48027],[-69.0,4.29057],[-68.375,4.26342],[-67.75,4.44335],[-66.82356,5.125],[-66.22174,6.0],[-66.0,6.52981]]}},{"type":"Feature","properties":{"pressure_hpa":1016,"timestamp":"2026-01-15T03:00:00Z","is_simulated":true,"operational_use":false},"geometry":{"type":"LineString","coordinates":[[-73.23204,-5.0],[-73.75,-4.3611],[-78.625,-1.35096],[-80.5,0.05335],[-81.0,0.21799],[-81.375,0.19978],[-81.875,-0.06588],[-82.0,-0.18048]]}},{"type":"Feature","properties":{"pressure_hpa":1016,"timestamp":"2026-01-15T03:00:00Z","is_simulated":true,"operational_use":false},"geometry":{"type":"LineString","coordinates":[[-69.375,11.90826],[-70.0,11.60354],[-70.5,11.11323],[-71.00483,10.125],[-71.18226,8.875],[-70.97136,7.5],[-70.47422,6.375],[-69.97332,5.75],[-69.375,5.35267],[-68.875,5.24029],[-68.375,5.30076],[-67.875,5.5363],[-67.36326,6.0],[-66.84629,6.875],[-66.54429,8.25],[-66.66036,9.625],[-67.02939,10.625],[-67.625,11.41943],[-68.125,11.77383],[-68.625,11.94348],[-69.125,11.95764],[-69.375,11.90826]]}},{"type":"Feature","properties":{"pressure_hpa":1020,"timestamp":"2026-01-15T03:00:00Z","is_simulated":true,"operational_use":false},"geometry":{"type":"LineString","coordinates":[[-75.64698,-5.0],[-78.875,-2.82855],[-79.75,-2.52082],[-80.25,-2.5117],[-80.625,-2.64351],[-81.03979,-3.0],[-81.51359,-3.875],[-81.77384,-5.0]]}},{"type":"Feature","properties":{"pressure_hpa":1020,"timestamp":"2026-01-15T03:00:00Z","is_simulated":true,"operational_use":false},"geometry":{"type":"LineString","coordinates":[[-69.25,11.15601],[-69.75,10.94031],[-70.28396,10.375],[-70.63115,9.5],[-70.67515,8.375],[-70.35099,7.25],[-69.75,6.44376],[-69.375,6.21041],[-69.0,6.11704],[-68.625,6.14917],[-68.125,6.39564],[-67.60516,7.0],[-67.27477,7.875],[-67.2186,9.0],[-67.42984,9.875],[-67.77433,10.5],[-68.14012,10.875],[-68.625,11.12913],[-69.0,11.18285],[-69.25,11.15601]]}},{"type":"Feature","properties":{"pressure_hpa":1024,"timestamp":"2026-01-15T03:00:00Z","is_simulated":true,"operational_use":false},"geometry":{"type":"LineString","coordinates":[[-69.125,10.27411],[-69.375,10.2017],[-69.65884,10.0],[-69.92326,9.625],[-70.10247,9.0],[-70.06373,8.25],[-69.81731,7.625],[-69.625,7.37211],[-69.375,7.17779],[-69.125,7.08503],[-68.875,7.07924],[-68.625,7.15975],[-68.34411,7.375],[-68.09146,7.75],[-67.91333,8.375],[-67.9452,9.125],[-68.125,9.6336],[-68.39535,10.0],[-68.625,10.17183],[-68.875,10.26464],[-69.125,10.27411]]}}]}
