{"type":"FeatureCollection","features":[{"type":"Feature","properties":{"pressure_hpa":996,"timestamp":"2026-01-15T06:00:00Z","is_simulated":true,"operational_use":false},"geometry":{"type":"LineString","coordinates":[[-76.0,8.39459],[-76.625,7.97544],[-77.55695,6.75],[-78.26743,4.875],[-78.41191,2.875],[-78.06902,1.25],[-77.3289,-0.125],[-76.5,-0.93419],[-75.75,-1.33092],[-74.875,-1.49726],[-74.0,-1.37298],[-73.0,-0.83551],[-72.23088,0.0],[-71.74527,1.0],[-71.58178,2.0],[-71.77627,3.25],[-73.89031,7.125],[-74.625,8.01905],[-75.0,8.31306],[-75.375,8.46385],[-75.75,8.46816],[-76.0,8.39459]]}},{"type":"Feature","properties":{"pressure_hpa":1000,"timestamp":"2026-01-15T06:00:00Z","is_simulated":true,"operational_use":false},"geometry":{"type":"LineString","coordinates":[[-75.875,10.50802],[-76.38417,10.125],[-77.92079,7.875],[-78.83904,5.25],[-78.95335,2.875],[-78.46409,0.875],[-77.59051,-0.625],[-76.625,-1.53176],[-75.625,-2.03103],[-74.625,-2.19787],[-73.625,-2.06392],[-72.625,-1.6085],[-71.87458,-1.0],[-71.12039,0.0],[-70.7242,1.0],[-70.64491,1.875],[-70.91479,3.0],[-74.875,10.13661],[-75.125,10.41847],[-75.375,10.56401],[-75.625,10.58615],[-75.875,10.50802]]}},{"type":"Feature","properties":{"pressure_hpa":1004,"timestamp":"2026-01-15T06:00:00Z","is_simulated":true,"operational_use":false},"geometry":{"type":"LineString","coordinates":[[-76.4027,14.0],[-79.33374,6.75],[-79.65911,3.75],[-79.19553,1.25],[-78.34604,-0.5],[-77.25,-1.77017],[-76.125,-2.52434],[-74.875,-2.93121],[-73.5,-2.96389],[-72.125,-2.59663],[-70.875,-1.85315],[-69.84424,-0.75],[-69.20206,0.5],[-69.02321,1.375],[-69.07863,2.0],[-69.28216,2.5],[-72.27371,6.25],[-73.51644,9.0],[-73.81779,11.25],[-73.42601,14.0]]}},{"type":"Feature","properties":{"pressure_hpa":1008,"timestamp":"2026-01-15T06:00:00Z","is_simulated":true,"operational_use":false},"geometry":{"type":"LineString","coordinates":[[-78.34346,14.0],[-80.54995,6.75],[-80.57586,3.75],[-79.72341,0.75],[-78.34682,-1.5],[-77.0,-2.76547],[-75.25,-3.6798],[-70.5,-4.51324],[-69.875,-4.45915],[-69.375,-4.2208],[-68.7216,-3.5],[-66.68372,1.5],[-66.41501,3.25],[-66.46228,3.75],[-66.55467,4.0],[-66.64454,4.125],[-66.875,4.26699],[-69.125,4.26743],[-70.125,4.64674],[-71.27143,5.625],[-72.41442,7.375],[-73.02781,9.25],[-73.08014,11.0],[-72.56676,12.875],[-71.96945,14.0]]}},{"type":"Feature","properties":{"pressure_hpa":1012,"timestamp":"2026-01-15T06:00:00Z","is_simulated":true,"operational_use":false},"geometry":{"type":"LineString","coordinates":[[-80.03194,14.0],[-82.0,9.67013]]}},{"type":"Feature","properties":{"pressure_hpa":1012,"timestamp":"2026-01-15T06:00:00Z","is_simulated":true,"operational_use":false},"geometry":{"type":"LineString","coordinates":[[-74.76742,-5.0],[-77.75,-3.09006],[-82.0,2.2982]]}},{"type":"Feature","properties":{"pressure_hpa":1012,"timestamp":"2026-01-15T06:00:00Z","is_simulated":true,"operational_use":false},"geometry":{"type":"LineString","coordinates":[[-70.53142,14.0],[-71.39276,13.25],[-72.125,12.1199],[-72.55508,10.625],[-72.48341,8.875],[-71.94608,7.375],[-71.0,6.07558],[-70.375,5.59502],[-69.75,5.34117],[-69.125,5.29444],[-68.5,5.45011],[-67.625,6.04889],[-66.93044,7.0],[-66.33553,8.875],[-66.34661,11.5],[-66.89998,13.5],[-67.19664,14.0]]}},{"type":"Feature","properties":{"pressure_hpa":1012,"timestamp":"2026-01-15T06:00:00Z","is_simulated":true,"operational_use":false},"geometry":{"type":"LineString","coordinates":[[-66.0,-3.85858],[-66.0,-4.45232]]}},{"type":"Feature","properties":{"pressure_hpa":1016,"timestamp":"2026-01-15T06:00:00Z","is_simulated":true,"operational_use":false},"geometry":{"type":"LineString","coordinates":[[-76.82521,-5.0],[-81.125,-1.34489],[-81.75,-1.10805],[-82.0,-1.09379]]}},{"type":"Feature","properties":{"pressure_hpa":1016,"timestamp":"2026-01-15T06:00:00Z","is_simulated":true,"operational_use":false},"geometry":{"type":"LineString","coordinates":[[-70.0,13.13284],[-70.625,12.85893],[-71.29452,12.25],[-71.80765,11.375],[-72.10595,10.125],[-71.97439,8.625],[-71.43982,7.375],[-70.75,6.56862],[-70.25,6.24958],[-69.75,6.10368],[-69.125,6.14853],[-68.625,6.37594],[-67.97742,7.0],[-67.46564,8.0],[-67.20409,9.5],[-67.40737,11.125],[-67.77269,12.0],[-68.1283,12.5],[-68.625,12.92243],[-69.125,13.13579],[-69.625,13.18828],[-70.0,13.13284]]}},{"type":"Feature","properties":{"pressure_hpa":1020,"timestamp":"2026-01-15T06:00:00Z","is_simulated":true,"operational_use":false},"geometry":{"type":"LineString","coordinates":[[-78.91142,-5.0],[-80.125,-4.21137],[-80.75,-3.99973],[-81.375,-4.01608],[-81.75,-4.17384],[-82.0,-4.35495]]}},{"type":"Feature","properties":{"pressure_hpa":1020,"timestamp":"2026-01-15T06:00:00Z","is_simulated":true,"operational_use":false},"geometry":{"type":"LineString","coordinates":[[-70.25,12.13058],[-70.875,11.70308],[-71.28592,11.125],[-71.58096,10.25],[-71.60115,9.125],[-71.3604,8.25],[-71.0,7.61499],[-70.625,7.21696],[-70.25,6.97783],[-69.875,6.8648],[-69.375,6.89464],[-68.875,7.14666],[-68.35328,7.75],[-67.97902,8.75],[-67.92998,10.0],[-68.19448,11.0],[-68.75,11.81195],[-69.25,12.13351],[-69.625,12.22332],[-70.125,12.17323],[-70.25,12.13058]]}},{"type":"Feature","properties":{"pressure_hpa":1024,"timestamp":"2026-01-15T06:00:00Z","is_simulated":true,"operational_use":false},"geometry":{"type":"LineString","coordinates":[[-69.875,11.26262],[-70.125,11.2146],[-70.375,11.08862],[-70.625,10.86387],[-70.91552,10.375],[-71.07107,9.625],[-70.9845,8.875],[-70.69515,8.25],[-70.25,7.82771],[-70.0,7.72731],[-69.75,7.7046],[-69.5,7.75701],[-69.25,7.89542],[-68.85368,8.375],[-68.61953,9.125],[-68.62868,9.875],[-68.88632,10.625],[-69.25,11.05222],[-69.5,11.19701],[-69.75,11.25938],[-69.875,11.26262]]}}]}
