{"type":"FeatureCollection","features":[{"type":"Feature","properties":{"pressure_hpa":996,"timestamp":"2026-01-15T09:00:00Z","is_simulated":true,"operational_use":false},"geometry":{"type":"LineString","coordinates":[[-76.875,7.37517],[-77.5,7.07666],[-78.29135,6.25],[-79.19794,4.5],[-79.61604,2.375],[-79.43289,0.375],[-78.86287,-1.125],[-78.0,-2.29128],[-77.0,-3.01712],[-76.125,-3.30565],[-75.25,-3.32252],[-74.375,-3.06335],[-73.5,-2.47084],[-72.71171,-1.5],[-72.1817,-0.25],[-72.05347,0.875],[-72.26828,2.0],[-74.875,6.12817],[-75.75,7.04045],[-76.25,7.32992],[-76.625,7.40036],[-76.875,7.37517]]}},{"type":"Feature","properties":{"pressure_hpa":1000,"timestamp":"2026-01-15T09:00:00Z","is_simulated":true,"operational_use":false},"geometry":{"type":"LineString","coordinates":[[-77.125,9.14511],[-77.91746,8.5],[-79.41941,6.0],[-80.14932,3.25],[-80.07794,0.875],[-79.49461,-1.0],[-78.73784,-2.25],[-77.875,-3.13594],[-76.875,-3.75231],[-75.75,-4.06222],[-74.5,-3.9867],[-73.5,-3.58601],[-72.46234,-2.75],[-71.59281,-1.5],[-71.1091,-0.125],[-71.06032,0.875],[-71.28559,1.75],[-76.125,8.94405],[-76.375,9.12639],[-76.625,9.21754],[-76.875,9.22044],[-77.125,9.14511]]}},{"type":"Feature","properties":{"pressure_hpa":1004,"timestamp":"2026-01-15T09:00:00Z","is_simulated":true,"operational_use":false},"geometry":{"type":"LineString","coordinates":[[-76.5,13.00834],[-77.0,12.71965],[-79.81255,7.75],[-80.84016,4.0],[-80.79051,1.25],[-80.06237,-1.125],[-78.84329,-3.0],[-77.5,-4.15078],[-76.125,-4.77499],[-74.625,-4.98402],[-73.125,-4.73027],[-72.125,-4.23084],[-70.97212,-3.125],[-69.87493,-1.125],[-69.49535,0.5],[-69.55134,1.25],[-69.75,1.75647],[-70.13271,2.25],[-72.64624,4.625],[-74.38869,7.375],[-75.64692,12.5],[-75.88967,12.875],[-76.125,13.01607],[-76.375,13.03487],[-76.5,13.00834]]}},{"type":"Feature","properties":{"pressure_hpa":1008,"timestamp":"2026-01-15T09:00:00Z","is_simulated":true,"operational_use":false},"geometry":{"type":"LineString","coordinates":[[-78.88352,14.0],[-81.80352,5.5],[-81.94402,2.625],[-81.11924,-0.5],[-79.85485,-2.75],[-78.125,-4.54899],[-77.48555,-5.0]]}},{"type":"Feature","properties":{"pressure_hpa":1008,"timestamp":"2026-01-15T09:00:00Z","is_simulated":true,"operational_use":false},"geometry":{"type":"LineString","coordinates":[[-73.72631,14.0],[-74.41264,10.5],[-74.21112,8.375],[-73.4577,6.5],[-72.35983,5.0],[-71.25,4.09829],[-70.25,3.69204],[-68.0,3.56989],[-67.75,3.4768],[-67.61448,3.375],[-67.44456,3.125],[-67.31088,2.375],[-69.27188,-4.25],[-69.63043,-5.0]]}},{"type":"Feature","properties":{"pressure_hpa":1012,"timestamp":"2026-01-15T09:00:00Z","is_simulated":true,"operational_use":false},"geometry":{"type":"LineString","coordinates":[[-80.69248,14.0],[-82.0,10.36634]]}},{"type":"Feature","properties":{"pressure_hpa":1012,"timestamp":"2026-01-15T09:00:00Z","is_simulated":true,"operational_use":false},"geometry":{"type":"LineString","coordinates":[[-78.80227,-5.0],[-82.0,-1.24268]]}},{"type":"Feature","properties":{"pressure_hpa":1012,"timestamp":"2026-01-15T09:00:00Z","is_simulated":true,"operational_use":false},"geometry":{"type":"LineString","coordinates":[[-72.29782,14.0],[-73.43714,11.875],[-73.84504,10.0],[-73.70099,8.25],[-73.125,6.7475],[-72.0,5.31723],[-71.25,4.81939],[-70.5,4.59977],[-69.75,4.63863],[-68.875,5.01327],[-67.94545,5.875],[-66.07544,9.75],[-66.0,9.85227]]}},{"type":"Feature","properties":{"pressure_hpa":1012,"timestamp":"2026-01-15T09:00:00Z","is_simulated":true,"operational_use":false},"geometry":{"type":"LineString","coordinates":[[-66.0,-0.14634],[-67.36686,-5.0]]}},{"type":"Feature","properties":{"pressure_hpa":1016,"timestamp":"2026-01-15T09:00:00Z","is_simulated":true,"operational_use":false},"geometry":{"type":"LineString","coordinates":[[-80.27375,-5.0],[-82.0,-3.59036]]}},{"type":"Feature","properties":{"pressure_hpa":1016,"timestamp":"2026-01-15T09:00:00Z","is_simulated":true,"operational_use":false},"geometry":{"type":"LineString","coordinates":[[-70.0,13.76317],[-71.0,13.47971],[-71.75,12.99323],[-72.53189,12.125],[-73.13667,10.875],[-73.374,9.375],[-73.19058,8.0],[-72.71565,6.875],[-72.0,5.97281],[-71.25,5.48049],[-70.625,5.33296],[-70.0,5.40866],[-69.5,5.63994],[-68.82842,6.25],[-68.1933,7.375],[-67.78287,9.375],[-68.00184,11.75],[-68.41906,12.875],[-68.78935,13.375],[-69.25,13.67129],[-69.75,13.76857],[-70.0,13.76317]]}},{"type":"Feature","properties":{"pressure_hpa":1020,"timestamp":"2026-01-15T09:00:00Z","is_simulated":true,"operational_use":false},"geometry":{"type":"LineString","coordinates":[[-71.125,12.25085],[-71.625,11.98835],[-72.13581,11.5],[-72.63601,10.625],[-72.89244,9.5],[-72.7998,8.25],[-72.48158,7.375],[-71.75,6.44148],[-71.125,6.09576],[-70.625,6.02918],[-70.125,6.14204],[-69.58143,6.5],[-69.09507,7.125],[-68.67765,8.25],[-68.59814,9.75],[-68.90868,11.0],[-69.2678,11.625],[-69.63305,12.0],[-70.125,12.26905],[-70.625,12.34406],[-71.125,12.25085]]}},{"type":"Feature","properties":{"pressure_hpa":1024,"timestamp":"2026-01-15T09:00:00Z","is_simulated":true,"operational_use":false},"geometry":{"type":"LineString","coordinates":[[-71.125,11.2643],[-71.5,11.07454],[-72.01781,10.5],[-72.31805,9.75],[-72.36933,8.625],[-72.10102,7.75],[-71.75,7.23499],[-71.375,6.93182],[-71.0,6.78932],[-70.625,6.7834],[-70.25,6.91689],[-69.85069,7.25],[-69.47808,7.875],[-69.26167,8.875],[-69.3904,10.0],[-69.67272,10.625],[-70.0,11.01018],[-70.40243,11.25],[-70.75,11.31796],[-71.125,11.2643]]}}]}
