{"type":"FeatureCollection","features":[{"type":"Feature","properties":{"pressure_hpa":996,"timestamp":"2026-01-15T12:00:00Z","is_simulated":true,"operational_use":false},"geometry":{"type":"LineString","coordinates":[[-78.25,6.76325],[-79.125,6.20526],[-80.16826,4.875],[-80.95956,2.875],[-81.15644,0.75],[-80.80176,-1.125],[-79.96666,-2.75],[-79.125,-3.64973],[-78.125,-4.26411],[-77.125,-4.52556],[-76.125,-4.47108],[-75.125,-4.07145],[-74.06811,-3.125],[-73.42205,-2.0],[-73.14529,-0.875],[-73.25295,0.5],[-75.75,5.25506],[-76.75,6.44377],[-77.25,6.75531],[-77.625,6.84976],[-78.125,6.80328],[-78.25,6.76325]]}},{"type":"Feature","properties":{"pressure_hpa":1000,"timestamp":"2026-01-15T12:00:00Z","is_simulated":true,"operational_use":false},"geometry":{"type":"LineString","coordinates":[[-74.74796,-5.0],[-73.625,-4.21418],[-72.71195,-3.0],[-72.20117,-1.625],[-72.14801,-0.5],[-72.52703,0.75],[-76.80306,7.875],[-77.125,8.17199],[-77.625,8.38487],[-78.0,8.37483],[-78.625,8.10406],[-79.75889,7.0],[-81.1493,4.5],[-81.73228,1.875],[-81.57729,-0.375],[-80.84492,-2.375],[-79.85736,-3.75],[-78.75,-4.66298],[-78.10672,-5.0]]}},{"type":"Feature","properties":{"pressure_hpa":1004,"timestamp":"2026-01-15T12:00:00Z","is_simulated":true,"operational_use":false},"geometry":{"type":"LineString","coordinates":[[-79.43185,-5.0],[-80.76672,-3.625],[-81.93114,-1.5],[-82.0,-1.30698]]}},{"type":"Feature","properties":{"pressure_hpa":1004,"timestamp":"2026-01-15T12:00:00Z","is_simulated":true,"operational_use":false},"geometry":{"type":"LineString","coordinates":[[-72.24288,-5.0],[-71.09088,-3.0],[-70.66822,-1.375],[-70.69094,-0.5],[-70.89449,0.125],[-74.25644,4.375],[-76.6554,10.375],[-77.04983,10.875],[-77.25,11.0],[-77.5,11.06686],[-78.0,10.98432],[-78.75,10.45832],[-81.26614,6.5],[-82.0,4.58777]]}},{"type":"Feature","properties":{"pressure_hpa":1008,"timestamp":"2026-01-15T12:00:00Z","is_simulated":true,"operational_use":false},"geometry":{"type":"LineString","coordinates":[[-80.52605,-5.0],[-82.0,-3.14677]]}},{"type":"Feature","properties":{"pressure_hpa":1008,"timestamp":"2026-01-15T12:00:00Z","is_simulated":true,"operational_use":false},"geometry":{"type":"LineString","coordinates":[[-79.23575,14.0],[-82.0,7.82812]]}},{"type":"Feature","properties":{"pressure_hpa":1008,"timestamp":"2026-01-15T12:00:00Z","is_simulated":true,"operational_use":false},"geometry":{"type":"LineString","coordinates":[[-75.73689,14.0],[-75.37284,12.875],[-75.23626,8.0],[-74.43456,5.5],[-73.35824,3.75],[-72.375,2.73562],[-71.25,2.05387],[-69.5,1.48239],[-69.125,1.24218],[-68.86199,0.875],[-68.71509,0.25],[-70.06544,-5.0]]}},{"type":"Feature","properties":{"pressure_hpa":1012,"timestamp":"2026-01-15T12:00:00Z","is_simulated":true,"operational_use":false},"geometry":{"type":"LineString","coordinates":[[-81.80031,-5.0],[-82.0,-4.78887]]}},{"type":"Feature","properties":{"pressure_hpa":1012,"timestamp":"2026-01-15T12:00:00Z","is_simulated":true,"operational_use":false},"geometry":{"type":"LineString","coordinates":[[-81.59104,14.0],[-82.0,12.23561]]}},{"type":"Feature","properties":{"pressure_hpa":1012,"timestamp":"2026-01-15T12:00:00Z","is_simulated":true,"operational_use":false},"geometry":{"type":"LineString","coordinates":[[-73.72589,14.0],[-74.75447,9.25],[-74.59345,7.125],[-73.81643,5.125],[-73.0,3.99616],[-72.25,3.35324],[-71.5,2.99658],[-70.75,2.88231],[-69.875,3.02042],[-68.875,3.52182],[-67.59963,4.75],[-66.0,6.78096]]}},{"type":"Feature","properties":{"pressure_hpa":1012,"timestamp":"2026-01-15T12:00:00Z","is_simulated":true,"operational_use":false},"geometry":{"type":"LineString","coordinates":[[-66.0,1.21329],[-68.28095,-5.0]]}},{"type":"Feature","properties":{"pressure_hpa":1016,"timestamp":"2026-01-15T12:00:00Z","is_simulated":true,"operational_use":false},"geometry":{"type":"LineString","coordinates":[[-71.92951,14.0],[-73.89014,10.5],[-74.27846,8.75],[-74.11872,6.875],[-73.58549,5.5],[-72.86303,4.5],[-72.25,3.9991],[-71.625,3.72646],[-71.0,3.66241],[-70.375,3.79831],[-69.75,4.1495],[-68.95862,5.0],[-68.16882,6.75],[-67.43921,10.25],[-67.09883,10.875],[-66.5,11.38339],[-66.0,11.67896]]}},{"type":"Feature","properties":{"pressure_hpa":1016,"timestamp":"2026-01-15T12:00:00Z","is_simulated":true,"operational_use":false},"geometry":{"type":"LineString","coordinates":[[-66.0,-3.5372],[-66.54668,-5.0]]}},{"type":"Feature","properties":{"pressure_hpa":1020,"timestamp":"2026-01-15T12:00:00Z","is_simulated":true,"operational_use":false},"geometry":{"type":"LineString","coordinates":[[-71.25,12.02964],[-72.0,11.72395],[-72.92788,10.875],[-73.54722,9.75],[-73.84014,8.375],[-73.73443,7.0],[-73.3293,5.875],[-72.57283,4.875],[-72.0,4.49695],[-71.5,4.35621],[-70.99584,4.375],[-70.5,4.55425],[-69.7114,5.25],[-69.125,6.37713],[-68.80866,8.25],[-69.03453,10.125],[-69.51698,11.25],[-70.0,11.78029],[-70.5,12.02166],[-71.0,12.0653],[-71.25,12.02964]]}},{"type":"Feature","properties":{"pressure_hpa":1024,"timestamp":"2026-01-15T12:00:00Z","is_simulated":true,"operational_use":false},"geometry":{"type":"LineString","coordinates":[[-71.5,10.76924],[-72.0,10.61549],[-72.375,10.36578],[-72.89526,9.75],[-73.26728,8.875],[-73.3932,7.75],[-73.22369,6.75],[-72.71302,5.75],[-72.125,5.22221],[-71.75,5.06813],[-71.375,5.02941],[-70.875,5.15475],[-70.5,5.39906],[-70.08824,5.875],[-69.65978,6.875],[-69.5349,8.25],[-69.76126,9.375],[-70.15892,10.125],[-70.625,10.56406],[-71.125,10.75987],[-71.5,10.76924]]}}]}
