{"type":"FeatureCollection","features":[{"type":"Feature","properties":{"pressure_hpa":996,"timestamp":"2026-01-15T15:00:00Z","is_simulated":true,"operational_use":false},"geometry":{"type":"LineString","coordinates":[[-78.48718,-5.0],[-79.5,-4.60715],[-80.375,-3.99317],[-81.4276,-2.75],[-82.0,-1.59363]]}},{"type":"Feature","properties":{"pressure_hpa":996,"timestamp":"2026-01-15T15:00:00Z","is_simulated":true,"operational_use":false},"geometry":{"type":"LineString","coordinates":[[-76.85919,-5.0],[-76.125,-4.71005],[-75.35004,-4.125],[-74.69244,-3.25],[-74.23747,-2.0],[-74.20512,-0.5],[-76.18336,4.875],[-77.00977,6.125],[-77.625,6.65979],[-78.125,6.88073],[-78.75,6.94152],[-79.5,6.74649],[-80.67595,5.875],[-81.68367,4.375],[-82.0,3.61552]]}},{"type":"Feature","properties":{"pressure_hpa":1000,"timestamp":"2026-01-15T15:00:00Z","is_simulated":true,"operational_use":false},"geometry":{"type":"LineString","coordinates":[[-80.29272,-5.0],[-81.52562,-3.75],[-82.0,-3.0444]]}},{"type":"Feature","properties":{"pressure_hpa":1000,"timestamp":"2026-01-15T15:00:00Z","is_simulated":true,"operational_use":false},"geometry":{"type":"LineString","coordinates":[[-74.37081,-5.0],[-73.58494,-3.75],[-73.23442,-2.5],[-73.28695,-1.125],[-76.51814,6.5],[-77.13605,7.375],[-77.625,7.79824],[-78.125,8.02911],[-78.75,8.09382],[-79.375,7.95381],[-80.375,7.34935],[-81.54818,6.0],[-82.0,5.2276]]}},{"type":"Feature","properties":{"pressure_hpa":1004,"timestamp":"2026-01-15T15:00:00Z","is_simulated":true,"operational_use":false},"geometry":{"type":"LineString","coordinates":[[-81.49851,-5.0],[-82.0,-4.41019]]}},{"type":"Feature","properties":{"pressure_hpa":1004,"timestamp":"2026-01-15T15:00:00Z","is_simulated":true,"operational_use":false},"geometry":{"type":"LineString","coordinates":[[-72.41701,-5.0],[-71.85982,-3.125],[-71.88462,-1.875],[-72.39008,-0.625],[-76.87803,8.625],[-77.37882,9.25],[-78.0,9.66161],[-78.5,9.7836],[-79.125,9.72638],[-79.75,9.46016],[-80.75859,8.625],[-82.0,6.94562]]}},{"type":"Feature","properties":{"pressure_hpa":1008,"timestamp":"2026-01-15T15:00:00Z","is_simulated":true,"operational_use":false},"geometry":{"type":"LineString","coordinates":[[-70.6622,-5.0],[-70.10421,-2.625],[-70.12586,-1.75],[-70.40313,-1.0],[-71.0,-0.35594],[-72.89912,1.25],[-74.5333,3.875],[-76.51654,10.75],[-77.29187,12.0],[-78.0,12.65455],[-78.625,13.00784],[-79.0,13.10465],[-79.375,13.0844],[-79.875,12.82654],[-82.0,9.45531]]}},{"type":"Feature","properties":{"pressure_hpa":1012,"timestamp":"2026-01-15T15:00:00Z","is_simulated":true,"operational_use":false},"geometry":{"type":"LineString","coordinates":[[-75.88947,14.0],[-75.32684,11.875],[-75.05475,6.625],[-74.09222,3.75],[-73.10291,2.25],[-72.25,1.4975],[-71.25,1.03139],[-69.875,0.87585],[-67.125,1.39699],[-66.875,1.56447],[-66.0,4.17031]]}},{"type":"Feature","properties":{"pressure_hpa":1012,"timestamp":"2026-01-15T15:00:00Z","is_simulated":true,"operational_use":false},"geometry":{"type":"LineString","coordinates":[[-66.0,1.21751],[-66.375,1.22386],[-66.65062,1.125],[-66.90023,0.75],[-68.96655,-5.0]]}},{"type":"Feature","properties":{"pressure_hpa":1016,"timestamp":"2026-01-15T15:00:00Z","is_simulated":true,"operational_use":false},"geometry":{"type":"LineString","coordinates":[[-74.06096,14.0],[-74.0197,12.375],[-74.74528,8.125],[-74.45013,5.625],[-73.6106,3.625],[-72.75,2.57134],[-72.0,2.07592],[-71.25,1.86599],[-70.5,1.89912],[-69.75,2.17653],[-69.125,2.63077],[-68.33882,3.625],[-66.24795,9.625],[-66.0,10.09348]]}},{"type":"Feature","properties":{"pressure_hpa":1016,"timestamp":"2026-01-15T15:00:00Z","is_simulated":true,"operational_use":false},"geometry":{"type":"LineString","coordinates":[[-66.0,-3.6727],[-66.99561,-5.0]]}},{"type":"Feature","properties":{"pressure_hpa":1020,"timestamp":"2026-01-15T15:00:00Z","is_simulated":true,"operational_use":false},"geometry":{"type":"LineString","coordinates":[[-72.14833,14.0],[-72.25,13.12425],[-74.0187,9.375],[-74.31553,7.375],[-73.97428,5.25],[-73.22694,3.75],[-72.625,3.10129],[-72.0,2.72389],[-71.375,2.57938],[-70.75,2.64394],[-70.125,2.92668],[-69.485,3.5],[-68.8096,4.625],[-68.18429,7.75],[-68.05218,10.875],[-67.70109,11.875],[-66.36973,14.0]]}},{"type":"Feature","properties":{"pressure_hpa":1024,"timestamp":"2026-01-15T15:00:00Z","is_simulated":true,"operational_use":false},"geometry":{"type":"LineString","coordinates":[[-71.5,11.13536],[-72.125,10.84987],[-72.90396,10.125],[-73.547,9.0],[-73.88938,7.5],[-73.74051,5.75],[-73.23814,4.5],[-72.75,3.85484],[-72.25,3.46475],[-71.75,3.27039],[-71.125,3.26136],[-70.5,3.51396],[-69.85625,4.125],[-69.24201,5.375],[-68.98099,7.375],[-69.27622,9.25],[-69.79403,10.375],[-70.125,10.77308],[-70.5,11.04344],[-70.875,11.16968],[-71.375,11.16391],[-71.5,11.13536]]}}]}
