{
"type": "FeatureCollection",
"name": "SELECT",
"features": [
{ "type": "Feature", "properties": { "code": "BRA", "name": "Brasil", "kind": "country" }, "geometry": { "type": "Point", "coordinates": [ -66.84952, -2.83838 ] } },
{ "type": "Feature", "properties": { "code": "COL", "name": "Colombia", "kind": "country" }, "geometry": { "type": "Point", "coordinates": [ -72.5856, 4.11347 ] } },
{ "type": "Feature", "properties": { "code": "ECU", "name": "Ecuador", "kind": "country" }, "geometry": { "type": "Point", "coordinates": [ -78.27605, -1.76727 ] } },
{ "type": "Feature", "properties": { "code": "PAN", "name": "Panamá", "kind": "country" }, "geometry": { "type": "Point", "coordinates": [ -81.47063, 8.41427 ] } },
{ "type": "Feature", "properties": { "code": "PER", "name": "Perú", "kind": "country" }, "geometry": { "type": "Point", "coordinates": [ -74.47053, -3.52009 ] } },
{ "type": "Feature", "properties": { "code": "VEN", "name": "Venezuela", "kind": "country" }, "geometry": { "type": "Point", "coordinates": [ -66.92153, 6.62518 ] } },
{ "type": "Feature", "properties": { "code": "COL-1406", "name": "Nariño", "kind": "department" }, "geometry": { "type": "Point", "coordinates": [ -77.9777, 1.60168 ] } },
{ "type": "Feature", "properties": { "code": "COL-1407", "name": "Putumayo", "kind": "department" }, "geometry": { "type": "Point", "coordinates": [ -75.5514, 0.42022 ] } },
{ "type": "Feature", "properties": { "code": "COL-1415", "name": "Chocó", "kind": "department" }, "geometry": { "type": "Point", "coordinates": [ -76.7263, 5.38283 ] } },
{ "type": "Feature", "properties": { "code": "COL-1424", "name": "Guainía", "kind": "department" }, "geometry": { "type": "Point", "coordinates": [ -68.8925, 2.70535 ] } },
{ "type": "Feature", "properties": { "code": "COL-1426", "name": "Vaupés", "kind": "department" }, "geometry": { "type": "Point", "coordinates": [ -70.5869, 0.79097 ] } },
{ "type": "Feature", "properties": { "code": "COL-1283", "name": "Amazonas", "kind": "department" }, "geometry": { "type": "Point", "coordinates": [ -71.9171, -1.26032 ] } },
{ "type": "Feature", "properties": { "code": "COL-1318", "name": "La Guajira", "kind": "department" }, "geometry": { "type": "Point", "coordinates": [ -72.6702, 11.4245 ] } },
{ "type": "Feature", "properties": { "code": "COL-1414", "name": "Cesar", "kind": "department" }, "geometry": { "type": "Point", "coordinates": [ -73.4339, 9.84893 ] } },
{ "type": "Feature", "properties": { "code": "COL-1421", "name": "Norte de Santander", "kind": "department" }, "geometry": { "type": "Point", "coordinates": [ -72.8175, 8.086 ] } },
{ "type": "Feature", "properties": { "code": "COL-1420", "name": "Arauca", "kind": "department" }, "geometry": { "type": "Point", "coordinates": [ -70.8913, 6.64307 ] } },
{ "type": "Feature", "properties": { "code": "COL-1315", "name": "Boyacá", "kind": "department" }, "geometry": { "type": "Point", "coordinates": [ -72.933, 5.68515 ] } },
{ "type": "Feature", "properties": { "code": "COL-1427", "name": "Vichada", "kind": "department" }, "geometry": { "type": "Point", "coordinates": [ -69.2414, 4.89224 ] } },
{ "type": "Feature", "properties": { "code": "COL-1404", "name": "Cauca", "kind": "department" }, "geometry": { "type": "Point", "coordinates": [ -77.277, 2.61609 ] } },
{ "type": "Feature", "properties": { "code": "COL-1408", "name": "Valle del Cauca", "kind": "department" }, "geometry": { "type": "Point", "coordinates": [ -76.5923, 3.58331 ] } },
{ "type": "Feature", "properties": { "code": "COL-1314", "name": "Antioquia", "kind": "department" }, "geometry": { "type": "Point", "coordinates": [ -75.5071, 6.70366 ] } },
{ "type": "Feature", "properties": { "code": "COL-1316", "name": "Córdoba", "kind": "department" }, "geometry": { "type": "Point", "coordinates": [ -75.6522, 8.43894 ] } },
{ "type": "Feature", "properties": { "code": "COL-1417", "name": "Sucre", "kind": "department" }, "geometry": { "type": "Point", "coordinates": [ -75.1319, 9.01236 ] } },
{ "type": "Feature", "properties": { "code": "COL-1413", "name": "Bolívar", "kind": "department" }, "geometry": { "type": "Point", "coordinates": [ -74.1807, 8.57823 ] } },
{ "type": "Feature", "properties": { "code": "COL-1412", "name": "Atlántico", "kind": "department" }, "geometry": { "type": "Point", "coordinates": [ -74.9941, 10.6712 ] } },
{ "type": "Feature", "properties": { "code": "COL-1416", "name": "Magdalena", "kind": "department" }, "geometry": { "type": "Point", "coordinates": [ -74.3474, 10.3731 ] } },
{ "type": "Feature", "properties": { "code": "COL-1342", "name": "San Andrés y Providencia", "kind": "department" }, "geometry": { "type": "Point", "coordinates": [ -81.7049, 12.5429 ] } },
{ "type": "Feature", "properties": { "code": "COL-1403", "name": "Caquetá", "kind": "department" }, "geometry": { "type": "Point", "coordinates": [ -73.8097, 0.61549 ] } },
{ "type": "Feature", "properties": { "code": "COL-1405", "name": "Huila", "kind": "department" }, "geometry": { "type": "Point", "coordinates": [ -75.5471, 2.65469 ] } },
{ "type": "Feature", "properties": { "code": "COL-1423", "name": "Guaviare", "kind": "department" }, "geometry": { "type": "Point", "coordinates": [ -71.8348, 1.85144 ] } },
{ "type": "Feature", "properties": { "code": "COL-1397", "name": "Caldas", "kind": "department" }, "geometry": { "type": "Point", "coordinates": [ -75.2793, 5.29037 ] } },
{ "type": "Feature", "properties": { "code": "COL-1422", "name": "Casanare", "kind": "department" }, "geometry": { "type": "Point", "coordinates": [ -71.4622, 5.46249 ] } },
{ "type": "Feature", "properties": { "code": "COL-1425", "name": "Meta", "kind": "department" }, "geometry": { "type": "Point", "coordinates": [ -72.9789, 3.5302 ] } },
{ "type": "Feature", "properties": { "code": "COL-1399", "name": "Bogotá D.C.", "kind": "department" }, "geometry": { "type": "Point", "coordinates": [ -74.2443, 4.08564 ] } },
{ "type": "Feature", "properties": { "code": "COL-1317", "name": "Santander", "kind": "department" }, "geometry": { "type": "Point", "coordinates": [ -73.4981, 6.85402 ] } },
{ "type": "Feature", "properties": { "code": "COL-1402", "name": "Tolima", "kind": "department" }, "geometry": { "type": "Point", "coordinates": [ -75.2073, 3.93749 ] } },
{ "type": "Feature", "properties": { "code": "COL-1400", "name": "Quindío", "kind": "department" }, "geometry": { "type": "Point", "coordinates": [ -75.64, 4.47197 ] } },
{ "type": "Feature", "properties": { "code": "COL-1398", "name": "Cundinamarca", "kind": "department" }, "geometry": { "type": "Point", "coordinates": [ -74.0613, 5.11121 ] } },
{ "type": "Feature", "properties": { "code": "COL-1401", "name": "Risaralda", "kind": "department" }, "geometry": { "type": "Point", "coordinates": [ -75.6743, 4.82682 ] } }
]
}
